[{"OBJECT_NAME":"QIANFAN-34","OBJECT_ID":"2024-185R","EPOCH":"2026-03-09T23:48:13.151232","MEAN_MOTION":14.02387814,"ECCENTRICITY":0.00081871,"INCLINATION":88.9718,"RA_OF_ASC_NODE":68.5076,"ARG_OF_PERICENTER":66.0949,"MEAN_ANOMALY":294.1088,"EPHEMERIS_TYPE":0,"CLASSIFICATION_TYPE":"U","NORAD_CAT_ID":61567,"ELEMENT_SET_NO":999,"REV_AT_EPOCH":8158,"BSTAR":0.00037025397,"MEAN_MOTION_DOT":5.82e-6,"MEAN_MOTION_DDOT":0},{"OBJECT_NAME":"FENGYUN 1C DEB","OBJECT_ID":"1999-025EAN","EPOCH":"2026-03-01T14:03:29.689056","MEAN_MOTION":13.88471558,"ECCENTRICITY":0.01494211,"INCLINATION":99.2311,"RA_OF_ASC_NODE":343.8248,"ARG_OF_PERICENTER":17.0506,"MEAN_ANOMALY":343.5596,"EPHEMERIS_TYPE":0,"CLASSIFICATION_TYPE":"U","NORAD_CAT_ID":36716,"ELEMENT_SET_NO":999,"REV_AT_EPOCH":64025,"BSTAR":0.00031987081,"MEAN_MOTION_DOT":3.75e-6,"MEAN_MOTION_DDOT":0}]
